NORAD_CAT_ID,OBJECT_NAME,OBJECT_TYPE,EPOCH,MEAN_MOTION,ECCENTRICITY,INCLINATION,RA_OF_ASC_NODE,ARG_OF_PERICENTER,MEAN_ANOMALY,BSTAR,MEAN_MOTION_DOT,MEAN_MOTION_DDOT,TLE_LINE0,TLE_LINE1,TLE_LINE2,SEMIMAJOR_AXIS,PERIOD,APOGEE,PERIGEE,DECAYED
54104.0,STARLINK-5203,PAYLOAD,2022-12-26 12:40:43,15.73200873,0.000348,53.2138,176.7007,8.4858,351.6221,6.352300000000001e-05,8.303e-05,0.0,0 STARLINK-5203,1 54104U 22136BF  22360.52828504  .00008303  00000-0  63523-4 0  9992,2 54104  53.2138 176.7007 0003480   8.4858 351.6221 15.73200873 10562,6727.893,91.533,352.099,347.416,0.0
54104.0,STARLINK-5203,PAYLOAD,2022-12-26 18:46:39,15.73191854,0.0003637,53.2151,175.4428,5.8156,354.2906,1.4737e-05,1.445e-05,0.0,0 STARLINK-5203,1 54104U 22136BF  22360.78240046  .00001445  00000-0  14737-4 0  9992,2 54104  53.2151 175.4428 0003637   5.8156 354.2906 15.73191854 11070,6727.918000000002,91.534,352.23,347.336,0.0
54104.0,STARLINK-5203,PAYLOAD,2022-12-27 11:32:54,15.73241733,0.0003483,53.2158,171.9846,9.7379,350.3708,0.00011061,0.00014959,0.0,0 STARLINK-5203,1 54104U 22136BF  22361.48118720  .00014959  00000-0  11061-3 0  9993,2 54104  53.2158 171.9846 0003483   9.7379 350.3708 15.73241733 11182,6727.776,91.531,351.9840000000001,347.298,0.0
54104.0,STARLINK-5203,PAYLOAD,2022-12-27 17:38:49,15.73225957,0.0003591,53.2159,170.7273,12.1987,347.9119,2.0341e-05,2.235e-05,0.0,0 STARLINK-5203,1 54104U 22136BF  22361.73529708  .00002235  00000-0  20341-4 0  9999,2 54104  53.2159 170.7273 0003591  12.1987 347.9119 15.73225957 10757,6727.821,91.532,352.102,347.27,0.0
54104.0,STARLINK-5203,PAYLOAD,2022-12-28 13:28:03,15.73227391,0.0004743,53.2152,166.6395,9.294,350.8167,1.3381e-05,1.255e-05,0.0,0 STARLINK-5203,1 54104U 22136BF  22362.56115050  .00001255  00000-0  13381-4 0  9999,2 54104  53.2152 166.6395 0004743   9.2940 350.8167 15.73227391 11352,6727.816999999999,91.532,352.87300000000016,346.491,0.0
54104.0,STARLINK-5203,PAYLOAD,2022-12-28 21:05:27,15.73195859,0.0004591,53.2159,165.0687,8.2043,351.9052,-7.1152e-05,-0.00010603,0.0,0 STARLINK-5203,1 54104U 22136BF  22362.87879439 -.00010603  00000-0 -71152-4 0  9990,2 54104  53.2159 165.0687 0004591   8.2043 351.9052 15.73195859 11404,6727.906999999997,91.533,352.861,346.68300000000005,0.0
54104.0,STARLINK-5203,PAYLOAD,2022-12-29 10:48:48,15.731605800000002,0.0002878,53.2135,162.2358,14.2654,345.8447,-6.1676e-05,-9.256e-05,0.0,0 STARLINK-5203,1 54104U 22136BF  22363.45056161 -.00009256  00000-0 -61676-4 0  9996,2 54104  53.2135 162.2358 0002878  14.2654 345.8447 15.73160580 11495,6728.0080000000025,91.535,351.809,347.936,0.0
54104.0,STARLINK-5203,PAYLOAD,2022-12-30 03:35:07,15.73183943,0.0004138999999999,53.2157,158.7796,1.9705,358.1330000000001,4.179300000000001e-05,5.243e-05,0.0,0 STARLINK-5203,1 54104U 22136BF  22364.14938787  .00005243  00000-0  41793-4 0  9994,2 54104  53.2157 158.7796 0004139   1.9705 358.1330 15.73183943 11606,6727.941,91.534,352.591,347.021,0.0
54104.0,STARLINK-5203,PAYLOAD,2022-12-30 11:12:31,15.73219849,0.0004733,53.2172,157.21,3.8922,356.2134,0.00022555,0.00031192,0.0,0 STARLINK-5203,1 54104U 22136BF  22364.46702717  .00031192  00000-0  22555-3 0  9997,2 54104  53.2172 157.2100 0004733   3.8922 356.2134 15.73219849 11659,6727.839,91.532,352.88800000000015,346.519,0.0
54104.0,STARLINK-5203,PAYLOAD,2022-12-30 20:21:22,15.7328702,0.0004328999999999,53.2144,155.3215,6.4546,353.6529,0.00035257,0.00049356,0.0,0 STARLINK-5203,1 54104U 22136BF  22364.84817616  .00049356  00000-0  35257-3 0  9998,2 54104  53.2144 155.3215 0004329   6.4546 353.6529 15.73287020 11718,6727.647,91.528,352.4240000000001,346.6,0.0
54104.0,STARLINK-5203,PAYLOAD,2022-12-31 10:04:39,15.73291029,0.0003829,53.216,152.4927,352.7833,7.3132,0.00012305,0.00016753,0.0,0 STARLINK-5203,1 54104U 22136BF  22365.41989720  .00016753  00000-0  12305-3 0  9992,2 54104  53.2160 152.4927 0003829 352.7833   7.3132 15.73291029 11801,6727.636,91.528,352.077,346.925,0.0
54104.0,STARLINK-5203,PAYLOAD,2022-12-31 19:13:31,15.73231215,0.0004227,53.2143,150.6078,2.7772,357.3271,-4.103e-05,-6.39e-05,0.0,0 STARLINK-5203,1 54104U 22136BF  22365.80106295 -.00006390  00000-0 -41030-4 0  9999,2 54104  53.2143 150.6078 0004227   2.7772 357.3271 15.73231215 11865,6727.806,91.531,352.515,346.827,0.0
54104.0,STARLINK-5203,PAYLOAD,2023-01-01 08:56:52,15.73175552,0.0004974,53.215,147.7787,23.0004,337.1238,8.3925e-05,0.00011164,0.0,0 STARLINK-5203,1 54104U 22136BF  23001.37283486  .00011164  00000-0  83925-4 0  9999,2 54104  53.2150 147.7787 0004974  23.0004 337.1238 15.73175552 11950,6727.965,91.535,353.176,346.483,0.0
54104.0,STARLINK-5203,PAYLOAD,2023-01-01 10:28:21,15.73164776,0.0004108,53.2152,147.4631,1.5813,358.5219,-0.00012884,-0.00018648,0.0,0 STARLINK-5203,1 54104U 22136BF  23001.43635992 -.00018648  00000-0 -12884-3 0  9990,2 54104  53.2152 147.4631 0004108   1.5813 358.5219 15.73164776 11968,6727.996,91.535,352.624,347.097,0.0
54104.0,STARLINK-5203,PAYLOAD,2023-01-01 16:34:17,15.73164191,0.0004173999999999,53.2157,146.2064,2.5708,357.5333,-7.3535e-06,-1.655e-05,0.0,0 STARLINK-5203,1 54104U 22136BF  23001.69048124 -.00001655  00000-0 -73535-5 0  9995,2 54104  53.2157 146.2064 0004174   2.5708 357.5333 15.73164191 11537,6727.996999999999,91.535,352.671,347.05400000000014,0.0
54104.0,STARLINK-5203,PAYLOAD,2023-01-02 09:20:34,15.73220361,0.0004032,53.2153,142.7477,358.4118,1.6889,0.00018428,0.00025349,0.0,0 STARLINK-5203,1 54104U 22136BF  23002.38929021  .00025349  00000-0  18428-3 0  9998,2 54104  53.2153 142.7477 0004032 358.4118   1.6889 15.73220361 12113,6727.837,91.532,352.415,346.98900000000015,0.0
54104.0,STARLINK-5203,PAYLOAD,2023-01-02 15:26:29,15.73207328,0.0004218,53.2154,141.4905,358.3713,1.7293,0.00011336,0.00015326,0.0,0 STARLINK-5203,1 54104U 22136BF  23002.64340218  .00015326  00000-0  11336-3 0  9997,2 54104  53.2154 141.4905 0004218 358.3713   1.7293 15.73207328 12154,6727.874,91.533,352.577,346.901,0.0
54104.0,STARLINK-5203,PAYLOAD,2023-01-03 02:06:51,15.73209116,0.0004246999999999,53.2166,139.2898,9.4467,350.6632,0.000156,0.00021343,0.0,0 STARLINK-5203,1 54104U 22136BF  23003.08810069  .00021343  00000-0  15600-3 0  9996,2 54104  53.2166 139.2898 0004247   9.4467 350.6632 15.73209116 12223,6727.869000000002,91.533,352.592,346.87699999999984,0.0
54104.0,STARLINK-5203,PAYLOAD,2023-01-03 09:44:15,15.73213758,0.000428,53.2162,137.7183,7.9098,352.1989,0.00013459,0.00018325,0.0,0 STARLINK-5203,1 54104U 22136BF  23003.40573959  .00018325  00000-0  13459-3 0  9992,2 54104  53.2162 137.7183 0004280   7.9098 352.1989 15.73213758 11801,6727.856,91.532,352.6,346.841,0.0
54104.0,STARLINK-5203,PAYLOAD,2023-01-03 15:50:10,15.7321517,0.0004153,53.2156,136.4606,10.0159,350.0943,3.8335e-05,4.764e-05,0.0,0 STARLINK-5203,1 54104U 22136BF  23003.65984946  .00004764  00000-0  38335-4 0  9994,2 54104  53.2156 136.4606 0004153  10.0159 350.0943 15.73215170 12316,6727.852,91.532,352.511,346.923,0.0
54104.0,STARLINK-5203,PAYLOAD,2023-01-04 14:42:22,15.73235883,0.0004421,53.2139,131.7451,11.0514,349.0602,0.00016545,0.00022705,0.0,0 STARLINK-5203,1 54104U 22136BF  23004.61276512  .00022705  00000-0  16545-3 0  9997,2 54104  53.2139 131.7451 0004421  11.0514 349.0602 15.73235883 11993,6727.793000000002,91.531,352.63199999999995,346.684,0.0
54104.0,STARLINK-5203,PAYLOAD,2023-01-05 09:00:06,15.73280499,0.000444,53.2158,127.972,7.2255,352.8828,0.00016929,0.00023293,0.0,0 STARLINK-5203,1 54104U 22136BF  23005.37506975  .00023293  00000-0  16929-3 0  9999,2 54104  53.2158 127.9720 0004440   7.2255 352.8828 15.73280499 12581,6727.666,91.528,352.51800000000014,346.5440000000001,0.0
54104.0,STARLINK-5203,PAYLOAD,2023-01-05 15:06:00,15.73257331,0.0004253,53.2161,126.7122,6.5144,353.5931,7.403100000000001e-05,9.807e-05,0.0,0 STARLINK-5203,1 54104U 22136BF  23005.62917545  .00009807  00000-0  74031-4 0  9990,2 54104  53.2161 126.7122 0004253   6.5144 353.5931 15.73257331 12626,6727.732,91.53,352.458,346.735,0.0
54104.0,STARLINK-5203,PAYLOAD,2023-01-06 13:58:06,15.73319291,0.0003478,53.217,121.9978,1.785,358.3182,9.8172e-05,0.0001325,0.0,0 STARLINK-5203,1 54104U 22136BF  23006.58201874  .00013250  00000-0  98172-4 0  9996,2 54104  53.2170 121.9978 0003478   1.7850 358.3182 15.73319291 12772,6727.555,91.526,351.76,347.08,0.0
54104.0,STARLINK-5203,PAYLOAD,2023-01-06 17:01:03,15.73291372,0.000419,53.2172,121.3687,334.3096,25.7716,1.251e-05,1.138e-05,0.0,0 STARLINK-5203,1 54104U 22136BF  23006.70907030  .00001138  00000-0  12510-4 0  9991,2 54104  53.2172 121.3687 0004190 334.3096  25.7716 15.73291372 12793,6727.635,91.528,352.319,346.681,0.0
54104.0,STARLINK-5203,PAYLOAD,2023-01-07 00:38:28,15.73237149,0.0003339,53.2169,119.7958,1.483,358.62,-0.00012091,-0.00017589,0.0,0 STARLINK-5203,1 54104U 22136BF  23007.02672302 -.00017589  00000-0 -12091-3 0  9990,2 54104  53.2169 119.7958 0003339   1.4830 358.6200 15.73237149 12847,6727.789000000002,91.531,351.901,347.408,0.0
54104.0,STARLINK-5203,PAYLOAD,2023-01-07 06:44:33,15.72949978,0.0005145,53.217,118.5384,53.4605,306.6888,-0.00076581,-0.00105727,0.0,0 STARLINK-5203,1 54104U 22136BF  23007.28094573 -.00105727  00000-0 -76581-3 0  9992,2 54104  53.2170 118.5384 0005145  53.4605 306.6888 15.72949978 12410,6728.608,91.548,353.935,347.011,0.0
54104.0,STARLINK-5203,PAYLOAD,2023-01-07 09:47:03,15.73915464,0.0005103,53.2165,117.9077,287.8984,72.1479,0.0017451,0.00259993,0.0,0 STARLINK-5203,1 54104U 22136BF  23007.40768417  .00259993  00000-0  17451-2 0  9994,2 54104  53.2165 117.9077 0005103 287.8984  72.1479 15.73915464 12902,6725.856,91.492,351.153,344.289,0.0
54104.0,STARLINK-5203,PAYLOAD,2023-01-08 19:20:04,15.73208631,0.0004343999999999,53.2164,110.9976,345.7753,14.3144,4.645100000000001e-05,5.904e-05,0.0,0 STARLINK-5203,1 54104U 22136BF  23008.80560710  .00005904  00000-0  46451-4 0  9990,2 54104  53.2164 110.9976 0004344 345.7753  14.3144 15.73208631 13129,6727.871,91.533,352.658,346.8130000000001,0.0
